[{"OBJECT_NAME":"STARLINK-4692","OBJECT_ID":"2022-104R","EPOCH":"2026-03-09T18:18:04.244832","MEAN_MOTION":15.08840597,"ECCENTRICITY":0.0001328,"INCLINATION":53.2164,"RA_OF_ASC_NODE":238.9696,"ARG_OF_PERICENTER":85.9197,"MEAN_ANOMALY":274.1947,"EPHEMERIS_TYPE":0,"CLASSIFICATION_TYPE":"U","NORAD_CAT_ID":53603,"ELEMENT_SET_NO":999,"REV_AT_EPOCH":19569,"BSTAR":-9.6908462e-5,"MEAN_MOTION_DOT":-1.83e-5,"MEAN_MOTION_DDOT":0},{"OBJECT_NAME":"CZ-6A DEB","OBJECT_ID":"2024-140GE","EPOCH":"2026-03-09T23:15:37.114848","MEAN_MOTION":15.28179091,"ECCENTRICITY":0.00907227,"INCLINATION":89.625,"RA_OF_ASC_NODE":325.5051,"ARG_OF_PERICENTER":77.5431,"MEAN_ANOMALY":283.5952,"EPHEMERIS_TYPE":0,"CLASSIFICATION_TYPE":"U","NORAD_CAT_ID":60803,"ELEMENT_SET_NO":999,"REV_AT_EPOCH":8608,"BSTAR":0.0028689301,"MEAN_MOTION_DOT":0.00089907,"MEAN_MOTION_DDOT":0}]
